{
    "links": {
        "self": "http://www.neowsapp.com/rest/v1/neo/3698484?api_key=iIulBulltgU6a56xZRHN4H3l9WmuAYTsLGpBGhQ2"
    },
    "id": "3698484",
    "neo_reference_id": "3698484",
    "name": "(2014 HC196)",
    "designation": "2014 HC196",
    "nasa_jpl_url": "http://ssd.jpl.nasa.gov/sbdb.cgi?sstr=3698484",
    "absolute_magnitude_h": 25.4,
    "estimated_diameter": {
        "kilometers": {
            "estimated_diameter_min": 0.022108281,
            "estimated_diameter_max": 0.0494356193
        },
        "meters": {
            "estimated_diameter_min": 22.1082810359,
            "estimated_diameter_max": 49.435619262
        },
        "miles": {
            "estimated_diameter_min": 0.0137374447,
            "estimated_diameter_max": 0.0307178602
        },
        "feet": {
            "estimated_diameter_min": 72.5337327539,
            "estimated_diameter_max": 162.1903570994
        }
    },
    "is_potentially_hazardous_asteroid": false,
    "close_approach_data": [
        {
            "close_approach_date": "2014-03-16",
            "close_approach_date_full": "2014-Mar-16 22:19",
            "epoch_date_close_approach": 1395008340000,
            "relative_velocity": {
                "kilometers_per_second": "6.5154026389",
                "kilometers_per_hour": "23455.4495000244",
                "miles_per_hour": "14574.3041629457"
            },
            "miss_distance": {
                "astronomical": "0.1061022916",
                "lunar": "41.2737914324",
                "kilometers": "15872676.825478892",
                "miles": "9862824.0341250296"
            },
            "orbiting_body": "Earth"
        }
    ],
    "orbital_data": {
        "orbit_id": "3",
        "orbit_determination_date": "2017-04-06 08:41:07",
        "first_observation_date": "2014-04-23",
        "last_observation_date": "2014-04-25",
        "data_arc_in_days": 2,
        "observations_used": 26,
        "orbit_uncertainty": "9",
        "minimum_orbit_intersection": ".101877",
        "jupiter_tisserand_invariant": "3.220",
        "epoch_osculation": "2456771.5",
        "eccentricity": ".5692160035188442",
        "semi_major_axis": "2.498390749797083",
        "inclination": "3.686184444350747",
        "ascending_node_longitude": "47.80794005676698",
        "orbital_period": "1442.410820846393",
        "perihelion_distance": "1.076266751969139",
        "perihelion_argument": "116.7741691694674",
        "aphelion_distance": "3.920514747625027",
        "perihelion_time": "2456724.484782841987",
        "mean_anomaly": "11.73415918146882",
        "mean_motion": ".2495821542636205",
        "equinox": "J2000",
        "orbit_class": {
            "orbit_class_type": "AMO",
            "orbit_class_description": "Near-Earth asteroid orbits similar to that of 1221 Amor",
            "orbit_class_range": "1.017 AU < q (perihelion) < 1.3 AU"
        }
    },
    "is_sentry_object": false
}